NORAD_CAT_ID,OBJECT_NAME,OBJECT_TYPE,EPOCH,MEAN_MOTION,ECCENTRICITY,INCLINATION,RA_OF_ASC_NODE,ARG_OF_PERICENTER,MEAN_ANOMALY,BSTAR,MEAN_MOTION_DOT,MEAN_MOTION_DDOT,TLE_LINE0,TLE_LINE1,TLE_LINE2,SEMIMAJOR_AXIS,PERIOD,APOGEE,PERIGEE,DECAYED
54086.0,STARLINK-5211,PAYLOAD,2024-07-05 08:51:56,15.08833648,0.00014,53.217,188.0371,97.2756,262.8395,4.7485e-05,4.68e-06,0.0,0 STARLINK-5211,1 54086U 22136AM  24187.36939841  .00000468  00000-0  47485-4 0  9992,2 54086  53.2170 188.0371 0001400  97.2756 262.8395 15.08833648 94758,6917.9,95.438,540.733,538.796,0.0
54086.0,STARLINK-5211,PAYLOAD,2024-07-05 16:48:51,15.08837747,0.0001412,53.2171,186.5506,97.7662,262.349,4.7206e-05,4.63e-06,0.0,0 STARLINK-5211,1 54086U 22136AM  24187.70059660  .00000463  00000-0  47206-4 0  9998,2 54086  53.2171 186.5506 0001412  97.7662 262.3490 15.08837747 94807,6917.887,95.438,540.729,538.775,0.0
54086.0,STARLINK-5211,PAYLOAD,2024-07-06 05:31:57,15.08835091,0.0001466,53.2174,184.1723,100.6874,259.4283,-8.8936e-06,-4.29e-06,0.0,0 STARLINK-5211,1 54086U 22136AM  24188.23052134 -.00000429  00000-0 -88936-5 0  9996,2 54086  53.2174 184.1723 0001466 100.6874 259.4283 15.08835091 95351,6917.895,95.438,540.775,538.746,0.0
54086.0,STARLINK-5211,PAYLOAD,2024-07-06 07:07:20,15.08834951,0.0001455,53.2173,183.8749,100.3932,259.7224,-1.1212e-05,-4.66e-06,0.0,0 STARLINK-5211,1 54086U 22136AM  24188.29676162 -.00000466  00000-0 -11212-4 0  9998,2 54086  53.2173 183.8749 0001455 100.3932 259.7224 15.08834951 94894,6917.896,95.438,540.767,538.754,0.0
54086.0,STARLINK-5211,PAYLOAD,2024-07-07 08:33:30,15.08838912,0.0001341,53.2163,179.1152,92.8989,267.2156,6.2341e-05,7.04e-06,0.0,0 STARLINK-5211,1 54086U 22136AM  24189.35659797  .00000704  00000-0  62341-4 0  9993,2 54086  53.2163 179.1152 0001341  92.8989 267.2156 15.08838912 95520,6917.884,95.438,540.676,538.821,0.0
54086.0,STARLINK-5211,PAYLOAD,2024-07-08 06:48:53,15.08840602,0.0001285,53.216,174.9508,92.2597,267.8542,8.1965e-05,1.017e-05,0.0,0 STARLINK-5211,1 54086U 22136AM  24190.28395631  .00001017  00000-0  81965-4 0  9992,2 54086  53.2160 174.9508 0001285  92.2597 267.8542 15.08840602 95198,6917.879,95.438,540.632,538.855,0.0
54086.0,STARLINK-5211,PAYLOAD,2024-07-08 16:21:12,15.08843207,0.0001303,53.216,173.1674,90.6721,269.442,7.6417e-05,9.29e-06,0.0,0 STARLINK-5211,1 54086U 22136AM  24190.68139469  .00000929  00000-0  76417-4 0  9998,2 54086  53.2160 173.1674 0001303  90.6721 269.4420 15.08843207 95721,6917.871,95.437,540.637,538.834,0.0
54086.0,STARLINK-5211,PAYLOAD,2024-07-08 22:42:45,15.08840893,0.0001373,53.2158,171.9801,87.7157,272.3993,2.2247e-05,6.6e-07,0.0,0 STARLINK-5211,1 54086U 22136AM  24190.94635846  .00000066  00000-0  22247-4 0  9991,2 54086  53.2158 171.9801 0001373  87.7157 272.3993 15.08840893 95291,6917.878,95.437,540.692,538.793,0.0
54086.0,STARLINK-5211,PAYLOAD,2024-07-09 05:04:17,15.0883936,0.0001384,53.2159,170.7887,95.6108,264.5042,6.1668e-06,-1.9e-06,0.0,0 STARLINK-5211,1 54086U 22136AM  24191.21131938 -.00000190  00000-0  61668-5 0  9995,2 54086  53.2159 170.7887 0001384  95.6108 264.5042 15.08839360 95801,6917.882,95.438,540.705,538.79,0.0
54086.0,STARLINK-5211,PAYLOAD,2024-07-09 22:33:32,15.08838055,0.0001423,53.2163,167.5171,98.9135,261.2018,5.2111e-06,-2.05e-06,0.0,0 STARLINK-5211,1 54086U 22136AM  24191.93996025 -.00000205  00000-0  52111-5 0  9990,2 54086  53.2163 167.5171 0001423  98.9135 261.2018 15.08838055 95443,6917.886,95.438,540.736,538.767,0.0
54086.0,STARLINK-5211,PAYLOAD,2024-07-10 04:55:05,15.08835663,0.0001392,53.2161,166.3282,95.2926,264.8225,-2.0695e-05,-6.17e-06,0.0,0 STARLINK-5211,1 54086U 22136AM  24192.20492312 -.00000617  00000-0 -20695-4 0  9990,2 54086  53.2161 166.3282 0001392  95.2926 264.8225 15.08835663 95489,6917.894,95.438,540.722,538.796,0.0
54086.0,STARLINK-5211,PAYLOAD,2024-07-11 04:45:52,15.08837203,0.0001251,53.2152,161.8667,92.2608,267.8527,3.1351e-05,2.11e-06,0.0,0 STARLINK-5211,1 54086U 22136AM  24193.19852219  .00000211  00000-0  31351-4 0  9994,2 54086  53.2152 161.8667 0001251  92.2608 267.8527 15.08837203 96104,6917.889,95.438,540.619,538.889,0.0
54086.0,STARLINK-5211,PAYLOAD,2024-07-11 07:56:38,15.0883727,0.0001277,53.2155,161.2725,92.2716,267.8423,3.413e-05,2.55e-06,0.0,0 STARLINK-5211,1 54086U 22136AM  24193.33100238  .00000255  00000-0  34130-4 0  9993,2 54086  53.2155 161.2725 0001277  92.2716 267.8423 15.08837270 95652,6917.889,95.438,540.637,538.87,0.0
54086.0,STARLINK-5211,PAYLOAD,2024-07-12 07:47:25,15.0883688,0.000133,53.2166,156.8114,92.814,267.3004,5.7654e-05,6.3e-06,0.0,0 STARLINK-5211,1 54086U 22136AM  24194.32460435  .00000630  00000-0  57654-4 0  9994,2 54086  53.2166 156.8114 0001330  92.8140 267.3004 15.08836880 96278,6917.89,95.438,540.675,538.835,0.0
54086.0,STARLINK-5211,PAYLOAD,2024-07-12 14:08:57,15.08844839,0.0001376,53.2172,155.6225,94.5943,265.5206,0.00011518,1.546e-05,0.0,0 STARLINK-5211,1 54086U 22136AM  24194.58955773  .00001546  00000-0  11518-3 0  9991,2 54086  53.2172 155.6225 0001376  94.5943 265.5206 15.08844839 95844,6917.866,95.437,540.682,538.779,0.0
54086.0,STARLINK-5211,PAYLOAD,2024-07-13 04:27:27,15.08829879,0.0001696,53.2178,152.9503,126.5959,233.5189,-3.721e-05,-8.8e-06,0.0,0 STARLINK-5211,1 54086U 22136AM  24195.18573392 -.00000880  00000-0 -37210-4 0  9991,2 54086  53.2178 152.9503 0001696 126.5959 233.5189 15.08829879 96402,6917.911,95.438,540.95,538.603,0.0
54086.0,STARLINK-5211,PAYLOAD,2024-07-13 13:59:45,15.08842316,0.0001671,53.219,151.1655,84.025,276.0933,6.8491e-06,-1.79e-06,0.0,0 STARLINK-5211,1 54086U 22136AM  24195.58316719 -.00000179  00000-0  68491-5 0  9999,2 54086  53.2190 151.1655 0001671  84.0250 276.0933 15.08842316 95993,6917.873,95.437,540.894,538.582,0.0
54086.0,STARLINK-5211,PAYLOAD,2024-07-13 20:21:18,15.08837353,0.0001162,53.2189,149.9754,93.7132,266.3993,8.2951e-05,1.032e-05,0.0,0 STARLINK-5211,1 54086U 22136AM  24195.84812710  .00001032  00000-0  82951-4 0  9994,2 54086  53.2189 149.9754 0001162  93.7132 266.3993 15.08837353 96508,6917.888,95.438,540.557,538.95,0.0
54086.0,STARLINK-5211,PAYLOAD,2024-07-14 05:53:36,15.08842291,0.000146,53.2176,148.1899,95.1292,264.9867,8.3777e-05,1.046e-05,0.0,0 STARLINK-5211,1 54086U 22136AM  24196.24556527  .00001046  00000-0  83777-4 0  9992,2 54086  53.2176 148.1899 0001460  95.1292 264.9867 15.08842291 96094,6917.873,95.437,540.748,538.728,0.0
54086.0,STARLINK-5211,PAYLOAD,2024-07-15 04:09:00,15.0884091,0.0001346,53.2168,144.0262,85.5877,274.5269,9.4882e-05,1.222e-05,0.0,0 STARLINK-5211,1 54086U 22136AM  24197.17292618  .00001222  00000-0  94882-4 0  9998,2 54086  53.2168 144.0262 0001346  85.5877 274.5269 15.08840910 96706,6917.878,95.437,540.674,538.811,0.0
54086.0,STARLINK-5211,PAYLOAD,2024-07-15 05:44:23,15.0884125,0.0001349,53.2168,143.7288,85.6138,274.5008,9.6649e-05,1.251e-05,0.0,0 STARLINK-5211,1 54086U 22136AM  24197.23916598  .00001251  00000-0  96649-4 0  9990,2 54086  53.2168 143.7288 0001349  85.6138 274.5008 15.08841250 96242,6917.877,95.437,540.675,538.808,0.0
54086.0,STARLINK-5211,PAYLOAD,2024-07-16 05:35:10,15.08846213,0.0001529,53.2175,139.266,89.2253,270.8915,3.5661e-05,2.8e-06,0.0,0 STARLINK-5211,1 54086U 22136AM  24198.23276460  .00000280  00000-0  35661-4 0  9996,2 54086  53.2175 139.2660 0001529  89.2253 270.8915 15.08846213 96860,6917.861,95.437,540.784,538.669,0.0
54086.0,STARLINK-5211,PAYLOAD,2024-07-17 02:15:11,15.08838653,0.0001757,53.2168,135.4047,74.3041,285.8144,2.5996e-05,1.26e-06,0.0,0 STARLINK-5211,1 54086U 22136AM  24199.09388748  .00000126  00000-0  25996-4 0  9993,2 54086  53.2168 135.4047 0001757  74.3041 285.8144 15.08838653 96995,6917.885,95.438,540.965,538.534,0.0
54086.0,STARLINK-5211,PAYLOAD,2024-07-17 22:55:12,15.08841156,0.0001455,53.2161,131.5346,104.4316,255.6838,-2.9345e-06,-3.35e-06,0.0,0 STARLINK-5211,1 54086U 22136AM  24199.95500622 -.00000335  00000-0 -29345-5 0  9992,2 54086  53.2161 131.5346 0001455 104.4316 255.6838 15.08841156 96652,6917.877,95.437,540.748,538.735,0.0
54086.0,STARLINK-5211,PAYLOAD,2024-07-18 05:16:45,15.08836797,0.0001352,53.2164,130.3455,101.1242,258.9902,-3.438e-05,-8.35e-06,0.0,0 STARLINK-5211,1 54086U 22136AM  24200.21997004 -.00000835  00000-0 -34380-4 0  9997,2 54086  53.2164 130.3455 0001352 101.1242 258.9902 15.08836797 97161,6917.89,95.438,540.69,538.82,0.0
54086.0,STARLINK-5211,PAYLOAD,2024-07-18 22:46:00,15.08831011,0.0001375,53.2157,127.0733,103.0919,257.0227,1.0811e-05,-1.16e-06,0.0,0 STARLINK-5211,1 54086U 22136AM  24200.94861429 -.00000116  00000-0  10811-4 0  9992,2 54086  53.2157 127.0733 0001375 103.0919 257.0227 15.08831011 96806,6917.908,95.438,540.724,538.822,0.0
54086.0,STARLINK-5211,PAYLOAD,2024-07-19 11:29:04,15.08849587,0.0001582,53.2175,124.6979,116.9317,243.1837,7.5203e-05,9.09e-06,0.0,0 STARLINK-5211,1 54086U 22136AM  24201.47852006  .00000909  00000-0  75203-4 0  9997,2 54086  53.2175 124.6979 0001582 116.9317 243.1837 15.08849587 97357,6917.851,95.437,540.81,538.622,0.0
54086.0,STARLINK-5211,PAYLOAD,2024-07-19 22:36:47,15.08829453,0.0002179,53.2175,122.6199,128.3092,231.8097,4.7403e-05,4.66e-06,0.0,0 STARLINK-5211,1 54086U 22136AM  24201.94221718  .00000466  00000-0  47403-4 0  9998,2 54086  53.2175 122.6199 0002179 128.3092 231.8097 15.08829453 96956,6917.913,95.438,541.285,538.27,0.0
54086.0,STARLINK-5211,PAYLOAD,2024-07-20 04:58:19,15.08839043,0.0001236,53.2168,121.4258,90.759,269.3544,0.00012726,1.738e-05,0.0,0 STARLINK-5211,1 54086U 22136AM  24202.20717046  .00001738  00000-0  12726-3 0  9994,2 54086  53.2168 121.4258 0001236  90.7590 269.3544 15.08839043 97465,6917.883,95.438,540.603,538.893,0.0
54086.0,STARLINK-5211,PAYLOAD,2024-07-20 11:19:51,15.0885048,0.0001398,53.2187,120.2381,98.0489,262.0662,0.00019713,2.852e-05,0.0,0 STARLINK-5211,1 54086U 22136AM  24202.47212025  .00002852  00000-0  19713-3 0  9991,2 54086  53.2187 120.2381 0001398  98.0489 262.0662 15.08850480 97501,6917.848,95.437,540.68,538.746,0.0
